0 DELTA 1 DEB
1 07168U 73086EG  13292.75411848 -.00000480  00000-0 -44440-2 0  2323
2 07168 102.3723 211.5799 0178386 252.2932 131.9602 12.11945688765324
